{
  "type": "FeatureCollection",
  "features": [
    {
      "type": "Feature",
      "id": "district-1",
      "properties": {
        "district_id": 1,
        "district_name": "Quận 1",
        "boundary_status": "historic",
        "source": "OpenStreetMap via Nominatim",
        "source_osm_type": "relation",
        "source_osm_id": "2587287",
        "retrieved_at_utc": "2026-08-06T04:18:45.228729+00:00"
      },
      "geometry": {
        "type": "Polygon",
        "coordinates": [
          [
            [
              106.6816889,
              10.7654323
            ],
            [
              106.6824224,
              10.7635821
            ],
            [
              106.6833713,
              10.7611886
            ],
            [
              106.6833766,
              10.7611753
            ],
            [
              106.6840416,
              10.7594978
            ],
            [
              106.684621,
              10.7580428
            ],
            [
              106.6852543,
              10.7564524
            ],
            [
              106.6854624,
              10.7559828
            ],
            [
              106.6855177,
              10.7558773
            ],
            [
              106.6855781,
              10.7557731
            ],
            [
              106.6856441,
              10.7556722
            ],
            [
              106.6857158,
              10.7555746
            ],
            [
              106.6859138,
              10.755326
            ],
            [
              106.6861442,
              10.7550365
            ],
            [
              106.6868253,
              10.754181
            ],
            [
              106.6872747,
              10.753519
            ],
            [
              106.6881266,
              10.7543877
            ],
            [
              106.6887473,
              10.7549482
            ],
            [
              106.6897117,
              10.7559422
            ],
            [
              106.6901384,
              10.7562986
            ],
            [
              106.6906724,
              10.7567447
            ],
            [
              106.6912137,
              10.7572362
            ],
            [
              106.6916093,
              10.7575954
            ],
            [
              106.6926313,
              10.758216
            ],
            [
              106.6926943,
              10.7582542
            ],
            [
              106.694486,
              10.7592226
            ],
            [
              106.6954617,
              10.7599781
            ],
            [
              106.6957226,
              10.7602048
            ],
            [
              106.695826,
              10.7602946
            ],
            [
              106.6959129,
              10.7603701
            ],
            [
              106.6960547,
              10.7605151
            ],
            [
              106.6961919,
              10.7606738
            ],
            [
              106.6964158,
              10.7609736
            ],
            [
              106.6969214,
              10.7615408
            ],
            [
              106.6971407,
              10.7618386
            ],
            [
              106.6975544,
              10.7624004
            ],
            [
              106.6979152,
              10.7629406
            ],
            [
              106.6980962,
              10.763174
            ],
            [
              106.6982152,
              10.7633005
            ],
            [
              106.698364,
              10.763427
            ],
            [
              106.6985112,
              10.7635624
            ],
            [
              106.698744,
              10.7637206
            ],
            [
              106.6992976,
              10.7640539
            ],
            [
              106.7003285,
              10.7646745
            ],
            [
              106.7007232,
              10.7649778
            ],
            [
              106.7012074,
              10.7653499
            ],
            [
              106.7013854,
              10.7655121
            ],
            [
              106.7015167,
              10.7656508
            ],
            [
              106.7017639,
              10.7659416
            ],
            [
              106.7019368,
              10.7661771
            ],
            [
              106.7019895,
              10.7662489
            ],
            [
              106.7022939,
              10.7667311
            ],
            [
              106.7027803,
              10.767227
            ],
            [
              106.7035693,
              10.7680314
            ],
            [
              106.7036651,
              10.7680873
            ],
            [
              106.7038639,
              10.7681835
            ],
            [
              106.7044202,
              10.7684069
            ],
            [
              106.7052267,
              10.7687638
            ],
            [
              106.7056291,
              10.7689242
            ],
            [
              106.7060486,
              10.7690684
            ],
            [
              106.7082991,
              10.7697601
            ],
            [
              106.7081934,
              10.7701579
            ],
            [
              106.7081291,
              10.7704852
            ],
            [
              106.7081041,
              10.7706501
            ],
            [
              106.7080696,
              10.7710626
            ],
            [
              106.7080204,
              10.771889
            ],
            [
              106.7080073,
              10.7722411
            ],
            [
              106.7079956,
              10.7729456
            ],
            [
              106.7080071,
              10.7733719
            ],
            [
              106.7080569,
              10.7742841
            ],
            [
              106.708136,
              10.7751802
            ],
            [
              106.7081897,
              10.7756075
            ],
            [
              106.70829,
              10.7761973
            ],
            [
              106.7084479,
              10.7769206
            ],
            [
              106.7085436,
              10.7772914
            ],
            [
              106.7086489,
              10.7776597
            ],
            [
              106.7087636,
              10.7780253
            ],
            [
              106.7088877,
              10.7783879
            ],
            [
              106.7091297,
              10.7790239
            ],
            [
              106.7092598,
              10.7793384
            ],
            [
              106.7094989,
              10.7798731
            ],
            [
              106.7095616,
              10.7800089
            ],
            [
              106.7097352,
              10.7803638
            ],
            [
              106.710106,
              10.7810618
            ],
            [
              106.7103796,
              10.7815073
            ],
            [
              106.7105259,
              10.7817241
            ],
            [
              106.710837,
              10.7821452
            ],
            [
              106.7111788,
              10.7825562
            ],
            [
              106.7113623,
              10.7827581
            ],
            [
              106.711747,
              10.7831456
            ],
            [
              106.7121543,
              10.7835101
            ],
            [
              106.7126629,
              10.7839097
            ],
            [
              106.7131932,
              10.784281
            ],
            [
              106.7134659,
              10.7844557
            ],
            [
              106.7137574,
              10.784631
            ],
            [
              106.7140538,
              10.7847979
            ],
            [
              106.7143551,
              10.7849562
            ],
            [
              106.714661,
              10.7851059
            ],
            [
              106.7151954,
              10.7853396
            ],
            [
              106.7151363,
              10.7854298
            ],
            [
              106.7150732,
              10.7855174
            ],
            [
              106.7149453,
              10.7856912
            ],
            [
              106.7148118,
              10.785861
            ],
            [
              106.7146728,
              10.7860264
            ],
            [
              106.7145285,
              10.7861874
            ],
            [
              106.714379,
              10.7863438
            ],
            [
              106.7142086,
              10.7865104
            ],
            [
              106.7140324,
              10.7866711
            ],
            [
              106.713945,
              10.7867453
            ],
            [
              106.7138505,
              10.7868255
            ],
            [
              106.7136632,
              10.7869735
            ],
            [
              106.7134707,
              10.7871149
            ],
            [
              106.7132733,
              10.7872496
            ],
            [
              106.7128377,
              10.7874826
            ],
            [
              106.7123839,
              10.7876501
            ],
            [
              106.7118759,
              10.7877139
            ],
            [
              106.7113755,
              10.787694
            ],
            [
              106.7104274,
              10.78756
            ],
            [
              106.7100891,
              10.7875209
            ],
            [
              106.7097488,
              10.7875051
            ],
            [
              106.7094406,
              10.787511
            ],
            [
              106.7092099,
              10.7875365
            ],
            [
              106.7089703,
              10.7876077
            ],
            [
              106.708727,
              10.7877518
            ],
            [
              106.708266,
              10.7881485
            ],
            [
              106.7079512,
              10.7885031
            ],
            [
              106.7077387,
              10.7887963
            ],
            [
              106.7076565,
              10.7889375
            ],
            [
              106.707618,
              10.7890035
            ],
            [
              106.7075247,
              10.7892194
            ],
            [
              106.707287,
              10.7900121
            ],
            [
              106.7070436,
              10.7907099
            ],
            [
              106.7069502,
              10.7909776
            ],
            [
              106.7068481,
              10.7911877
            ],
            [
              106.7067238,
              10.7913608
            ],
            [
              106.7065674,
              10.7915009
            ],
            [
              106.7063782,
              10.7916535
            ],
            [
              106.706107,
              10.7918405
            ],
            [
              106.7058508,
              10.791992
            ],
            [
              106.7055456,
              10.7921198
            ],
            [
              106.7051212,
              10.7922677
            ],
            [
              106.704941,
              10.792325
            ],
            [
              106.704088,
              10.7925643
            ],
            [
              106.7035701,
              10.792692
            ],
            [
              106.7032122,
              10.7927802
            ],
            [
              106.7023161,
              10.7929778
            ],
            [
              106.7014587,
              10.793154
            ],
            [
              106.7004092,
              10.7933569
            ],
            [
              106.6998536,
              10.7934671
            ],
            [
              106.6994158,
              10.7935269
            ],
            [
              106.698929,
              10.7935728
            ],
            [
              106.6981251,
              10.793629
            ],
            [
              106.6978588,
              10.7936403
            ],
            [
              106.6975477,
              10.7936535
            ],
            [
              106.6973197,
              10.7936608
            ],
            [
              106.69701,
              10.7936542
            ],
            [
              106.6967061,
              10.7936287
            ],
            [
              106.695999,
              10.7935198
            ],
            [
              106.695646,
              10.7934743
            ],
            [
              106.69522,
              10.7934345
            ],
            [
              106.6950206,
              10.7934546
            ],
            [
              106.6948515,
              10.7935112
            ],
            [
              106.6946965,
              10.7936121
            ],
            [
              106.6946043,
              10.7937444
            ],
            [
              106.6945432,
              10.7939072
            ],
            [
              106.6945489,
              10.7943478
            ],
            [
              106.6945368,
              10.7945495
            ],
            [
              106.694505,
              10.7946929
            ],
            [
              106.6944483,
              10.794811
            ],
            [
              106.6943564,
              10.7948981
            ],
            [
              106.6942276,
              10.7949547
            ],
            [
              106.6941107,
              10.7949673
            ],
            [
              106.6940367,
              10.7949753
            ],
            [
              106.6937304,
              10.7949633
            ],
            [
              106.693174,
              10.7948774
            ],
            [
              106.6929253,
              10.794839
            ],
            [
              106.6927413,
              10.7948523
            ],
            [
              106.6926141,
              10.7948798
            ],
            [
              106.6925056,
              10.7949224
            ],
            [
              106.6923324,
              10.7950235
            ],
            [
              106.6916087,
              10.7955247
            ],
            [
              106.6915257,
              10.7955819
            ],
            [
              106.6913471,
              10.7956757
            ],
            [
              106.6911492,
              10.795743
            ],
            [
              106.6909561,
              10.7957797
            ],
            [
              106.6907597,
              10.7957902
            ],
            [
              106.6905383,
              10.7957864
            ],
            [
              106.6903323,
              10.7957585
            ],
            [
              106.6898681,
              10.7956958
            ],
            [
              106.6894209,
              10.7956353
            ],
            [
              106.6891958,
              10.7955997
            ],
            [
              106.689155,
              10.7955932
            ],
            [
              106.6889405,
              10.7955367
            ],
            [
              106.6887751,
              10.7954689
            ],
            [
              106.6881695,
              10.7951288
            ],
            [
              106.6879857,
              10.7950256
            ],
            [
              106.6877807,
              10.7949321
            ],
            [
              106.6875889,
              10.7948706
            ],
            [
              106.6873877,
              10.7948627
            ],
            [
              106.687202,
              10.7949107
            ],
            [
              106.6870471,
              10.7950112
            ],
            [
              106.6869427,
              10.7951322
            ],
            [
              106.6868504,
              10.7952926
            ],
            [
              106.6865603,
              10.7959327
            ],
            [
              106.6863378,
              10.796383
            ],
            [
              106.6862439,
              10.7965729
            ],
            [
              106.6861233,
              10.7967384
            ],
            [
              106.6859486,
              10.7968624
            ],
            [
              106.6857755,
              10.7969297
            ],
            [
              106.6856013,
              10.7969493
            ],
            [
              106.685433,
              10.7969315
            ],
            [
              106.6852732,
              10.7968688
            ],
            [
              106.6851077,
              10.7967511
            ],
            [
              106.6849599,
              10.7965626
            ],
            [
              106.684886,
              10.7963733
            ],
            [
              106.6848646,
              10.7961678
            ],
            [
              106.684874,
              10.7959517
            ],
            [
              106.6849183,
              10.7956313
            ],
            [
              106.6850308,
              10.7948165
            ],
            [
              106.6850667,
              10.7946235
            ],
            [
              106.6851211,
              10.7944282
            ],
            [
              106.6852103,
              10.7942599
            ],
            [
              106.685342,
              10.7941097
            ],
            [
              106.6856171,
              10.7938766
            ],
            [
              106.6862255,
              10.7933609
            ],
            [
              106.6863497,
              10.7932013
            ],
            [
              106.6863946,
              10.7930891
            ],
            [
              106.6863951,
              10.7929757
            ],
            [
              106.6863825,
              10.7928942
            ],
            [
              106.686358,
              10.7928242
            ],
            [
              106.6862779,
              10.792689
            ],
            [
              106.6861498,
              10.7925061
            ],
            [
              106.6866889,
              10.7920879
            ],
            [
              106.6875146,
              10.7914471
            ],
            [
              106.6877188,
              10.7912886
            ],
            [
              106.6883591,
              10.7907767
            ],
            [
              106.6893447,
              10.7899889
            ],
            [
              106.6895735,
              10.7898087
            ],
            [
              106.6896856,
              10.7897171
            ],
            [
              106.6897055,
              10.7897014
            ],
            [
              106.689793,
              10.7896323
            ],
            [
              106.6900498,
              10.7894266
            ],
            [
              106.6901643,
              10.7893349
            ],
            [
              106.6908273,
              10.7888038
            ],
            [
              106.6919922,
              10.7878726
            ],
            [
              106.6937476,
              10.7864709
            ],
            [
              106.694867,
              10.7855771
            ],
            [
              106.6959855,
              10.7846839
            ],
            [
              106.6970435,
              10.7838172
            ],
            [
              106.6981274,
              10.7828849
            ],
            [
              106.6950078,
              10.77958
            ],
            [
              106.6939511,
              10.7784635
            ],
            [
              106.6930249,
              10.7774849
            ],
            [
              106.6905661,
              10.7748277
            ],
            [
              106.6894575,
              10.7736226
            ],
            [
              106.6878639,
              10.7719345
            ],
            [
              106.6872117,
              10.7712435
            ],
            [
              106.6864435,
              10.770428
            ],
            [
              106.6844859,
              10.7683635
            ],
            [
              106.6843105,
              10.768177
            ],
            [
              106.6839769,
              10.7678222
            ],
            [
              106.6823407,
              10.7660818
            ],
            [
              106.68223,
              10.7659641
            ],
            [
              106.6820988,
              10.7658222
            ],
            [
              106.6819748,
              10.7656968
            ],
            [
              106.6818339,
              10.7655624
            ],
            [
              106.6816889,
              10.7654323
            ]
          ]
        ]
      }
    },
    {
      "type": "Feature",
      "id": "district-3",
      "properties": {
        "district_id": 3,
        "district_name": "Quận 3",
        "boundary_status": "historic",
        "source": "OpenStreetMap via Nominatim",
        "source_osm_type": "relation",
        "source_osm_id": "3819816",
        "retrieved_at_utc": "2026-08-06T04:18:45.228729+00:00"
      },
      "geometry": {
        "type": "Polygon",
        "coordinates": [
          [
            [
              106.6642925,
              10.7871257
            ],
            [
              106.6646464,
              10.7869335
            ],
            [
              106.6648437,
              10.7868278
            ],
            [
              106.6665571,
              10.7859098
            ],
            [
              106.6670727,
              10.7856335
            ],
            [
              106.6672217,
              10.7855537
            ],
            [
              106.6678162,
              10.7852352
            ],
            [
              106.6690018,
              10.7845999
            ],
            [
              106.6692778,
              10.784452
            ],
            [
              106.6699522,
              10.7840906
            ],
            [
              106.6703346,
              10.7838858
            ],
            [
              106.6719408,
              10.7830251
            ],
            [
              106.6721171,
              10.7829307
            ],
            [
              106.673892,
              10.7819798
            ],
            [
              106.6742483,
              10.7817889
            ],
            [
              106.6748605,
              10.7814609
            ],
            [
              106.6752678,
              10.7812426
            ],
            [
              106.6759682,
              10.7808673
            ],
            [
              106.6770791,
              10.7802721
            ],
            [
              106.678,
              10.7797787
            ],
            [
              106.6780876,
              10.7797318
            ],
            [
              106.678382,
              10.779574
            ],
            [
              106.6816674,
              10.7778253
            ],
            [
              106.6816868,
              10.7777538
            ],
            [
              106.6817307,
              10.7776174
            ],
            [
              106.6818104,
              10.7774595
            ],
            [
              106.6827966,
              10.7758944
            ],
            [
              106.6819085,
              10.7751428
            ],
            [
              106.6802482,
              10.7737376
            ],
            [
              106.6798227,
              10.7733775
            ],
            [
              106.6790622,
              10.7727338
            ],
            [
              106.6782447,
              10.7720419
            ],
            [
              106.6777959,
              10.771673
            ],
            [
              106.6776153,
              10.7715083
            ],
            [
              106.6774413,
              10.7713367
            ],
            [
              106.6767517,
              10.7705941
            ],
            [
              106.6763088,
              10.7701172
            ],
            [
              106.6760042,
              10.7697916
            ],
            [
              106.6758382,
              10.7696058
            ],
            [
              106.6756419,
              10.7693963
            ],
            [
              106.6755721,
              10.7693123
            ],
            [
              106.675512,
              10.769233
            ],
            [
              106.6752469,
              10.7688524
            ],
            [
              106.6744365,
              10.7676889
            ],
            [
              106.6759945,
              10.7672041
            ],
            [
              106.676415,
              10.7670733
            ],
            [
              106.67718,
              10.7668353
            ],
            [
              106.6786801,
              10.7663685
            ],
            [
              106.6810237,
              10.7656393
            ],
            [
              106.6816889,
              10.7654323
            ],
            [
              106.6818339,
              10.7655624
            ],
            [
              106.6819748,
              10.7656968
            ],
            [
              106.6820988,
              10.7658222
            ],
            [
              106.68223,
              10.7659641
            ],
            [
              106.6823407,
              10.7660818
            ],
            [
              106.6839769,
              10.7678222
            ],
            [
              106.6843105,
              10.768177
            ],
            [
              106.6844859,
              10.7683635
            ],
            [
              106.6864435,
              10.770428
            ],
            [
              106.6872117,
              10.7712435
            ],
            [
              106.6878639,
              10.7719345
            ],
            [
              106.6894575,
              10.7736226
            ],
            [
              106.6905661,
              10.7748277
            ],
            [
              106.6930249,
              10.7774849
            ],
            [
              106.6939511,
              10.7784635
            ],
            [
              106.6950078,
              10.77958
            ],
            [
              106.6981274,
              10.7828849
            ],
            [
              106.6970435,
              10.7838172
            ],
            [
              106.6959855,
              10.7846839
            ],
            [
              106.694867,
              10.7855771
            ],
            [
              106.6937476,
              10.7864709
            ],
            [
              106.6919922,
              10.7878726
            ],
            [
              106.6908273,
              10.7888038
            ],
            [
              106.6901643,
              10.7893349
            ],
            [
              106.6900498,
              10.7894266
            ],
            [
              106.689793,
              10.7896323
            ],
            [
              106.6897055,
              10.7897014
            ],
            [
              106.6896856,
              10.7897171
            ],
            [
              106.6895735,
              10.7898087
            ],
            [
              106.6893447,
              10.7899889
            ],
            [
              106.6883591,
              10.7907767
            ],
            [
              106.6877188,
              10.7912886
            ],
            [
              106.6875146,
              10.7914471
            ],
            [
              106.6866889,
              10.7920879
            ],
            [
              106.6861498,
              10.7925061
            ],
            [
              106.6860645,
              10.7924021
            ],
            [
              106.6859844,
              10.7923285
            ],
            [
              106.6858743,
              10.79227
            ],
            [
              106.6857326,
              10.7922396
            ],
            [
              106.6855707,
              10.7922353
            ],
            [
              106.6851778,
              10.7923033
            ],
            [
              106.6846537,
              10.792394
            ],
            [
              106.6843412,
              10.792439
            ],
            [
              106.6839467,
              10.7924625
            ],
            [
              106.6835234,
              10.7924087
            ],
            [
              106.6834065,
              10.7923741
            ],
            [
              106.683071,
              10.7922746
            ],
            [
              106.6829744,
              10.792226
            ],
            [
              106.6825809,
              10.7920281
            ],
            [
              106.6822586,
              10.791826
            ],
            [
              106.6820491,
              10.7916575
            ],
            [
              106.6819614,
              10.7915707
            ],
            [
              106.6817327,
              10.791323
            ],
            [
              106.681669,
              10.7912391
            ],
            [
              106.6814994,
              10.7913692
            ],
            [
              106.6811003,
              10.7912686
            ],
            [
              106.6810562,
              10.7913798
            ],
            [
              106.6808926,
              10.7913554
            ],
            [
              106.6808027,
              10.7913231
            ],
            [
              106.6806689,
              10.7912724
            ],
            [
              106.6805496,
              10.7912579
            ],
            [
              106.6805455,
              10.79128
            ],
            [
              106.6805127,
              10.7912727
            ],
            [
              106.6805087,
              10.7912912
            ],
            [
              106.6803984,
              10.7912592
            ],
            [
              106.6803823,
              10.7912711
            ],
            [
              106.6803585,
              10.7912533
            ],
            [
              106.6803712,
              10.7912045
            ],
            [
              106.6803427,
              10.7911976
            ],
            [
              106.6803404,
              10.7912124
            ],
            [
              106.6803088,
              10.7912095
            ],
            [
              106.6803048,
              10.791249
            ],
            [
              106.6801869,
              10.7912555
            ],
            [
              106.6801247,
              10.7912414
            ],
            [
              106.6799984,
              10.7911782
            ],
            [
              106.679932,
              10.7911591
            ],
            [
              106.6797687,
              10.791058
            ],
            [
              106.6797875,
              10.7909934
            ],
            [
              106.6796614,
              10.7909694
            ],
            [
              106.6796158,
              10.7910495
            ],
            [
              106.6794233,
              10.7910082
            ],
            [
              106.6794256,
              10.7909919
            ],
            [
              106.6793305,
              10.7909579
            ],
            [
              106.6793008,
              10.7910293
            ],
            [
              106.6792834,
              10.79104
            ],
            [
              106.6792219,
              10.7910178
            ],
            [
              106.6792147,
              10.7909952
            ],
            [
              106.6792091,
              10.7910076
            ],
            [
              106.67918,
              10.7909941
            ],
            [
              106.6791749,
              10.7910083
            ],
            [
              106.679092,
              10.7909554
            ],
            [
              106.6789037,
              10.7908795
            ],
            [
              106.6788212,
              10.7908927
            ],
            [
              106.6788209,
              10.7908778
            ],
            [
              106.6786999,
              10.7908525
            ],
            [
              106.6786764,
              10.79088
            ],
            [
              106.6786367,
              10.7908717
            ],
            [
              106.6786345,
              10.7908973
            ],
            [
              106.6786097,
              10.7908955
            ],
            [
              106.6786085,
              10.7909129
            ],
            [
              106.6785736,
              10.7909116
            ],
            [
              106.6785195,
              10.7908968
            ],
            [
              106.6785205,
              10.7908833
            ],
            [
              106.6784245,
              10.7908721
            ],
            [
              106.6784246,
              10.7908162
            ],
            [
              106.678079,
              10.7907779
            ],
            [
              106.6778833,
              10.7907561
            ],
            [
              106.6778652,
              10.7908952
            ],
            [
              106.677812,
              10.7908902
            ],
            [
              106.6777765,
              10.790904
            ],
            [
              106.6777121,
              10.7908854
            ],
            [
              106.6777034,
              10.7908472
            ],
            [
              106.6775887,
              10.7908139
            ],
            [
              106.6775904,
              10.7908041
            ],
            [
              106.6775341,
              10.7907787
            ],
            [
              106.6775371,
              10.7907655
            ],
            [
              106.6774667,
              10.7907329
            ],
            [
              106.6772377,
              10.7906904
            ],
            [
              106.6771391,
              10.7906914
            ],
            [
              106.6768404,
              10.7906094
            ],
            [
              106.6768453,
              10.7905771
            ],
            [
              106.6768062,
              10.7905682
            ],
            [
              106.6768091,
              10.7904852
            ],
            [
              106.6767552,
              10.7904747
            ],
            [
              106.6767569,
              10.7904543
            ],
            [
              106.6766629,
              10.7904431
            ],
            [
              106.6766449,
              10.7905402
            ],
            [
              106.6766584,
              10.7905429
            ],
            [
              106.6766577,
              10.7905738
            ],
            [
              106.6765943,
              10.7905709
            ],
            [
              106.6765933,
              10.790588
            ],
            [
              106.6764704,
              10.7905835
            ],
            [
              106.6764706,
              10.7905712
            ],
            [
              106.6764424,
              10.7905679
            ],
            [
              106.6764404,
              10.7905241
            ],
            [
              106.6764188,
              10.7905233
            ],
            [
              106.6762713,
              10.7905179
            ],
            [
              106.6762242,
              10.7905009
            ],
            [
              106.676192,
              10.7904994
            ],
            [
              106.6760882,
              10.7904475
            ],
            [
              106.6760954,
              10.7904309
            ],
            [
              106.6760582,
              10.7904092
            ],
            [
              106.6760431,
              10.7904309
            ],
            [
              106.6758862,
              10.7903611
            ],
            [
              106.6758561,
              10.7903599
            ],
            [
              106.6758281,
              10.7903636
            ],
            [
              106.6757471,
              10.7903571
            ],
            [
              106.6755087,
              10.7903002
            ],
            [
              106.6754926,
              10.7902741
            ],
            [
              106.6752519,
              10.7902323
            ],
            [
              106.6752437,
              10.7903227
            ],
            [
              106.6752265,
              10.7903204
            ],
            [
              106.6751766,
              10.7903138
            ],
            [
              106.6751768,
              10.7902929
            ],
            [
              106.6750577,
              10.7902847
            ],
            [
              106.6750738,
              10.790255
            ],
            [
              106.6750276,
              10.7902455
            ],
            [
              106.6750229,
              10.7902705
            ],
            [
              106.6749887,
              10.7902652
            ],
            [
              106.6749739,
              10.7902903
            ],
            [
              106.6749806,
              10.7902175
            ],
            [
              106.6748737,
              10.7902132
            ],
            [
              106.674876,
              10.7901573
            ],
            [
              106.6746712,
              10.7901518
            ],
            [
              106.6746612,
              10.7900096
            ],
            [
              106.6746065,
              10.7900131
            ],
            [
              106.674607,
              10.79004
            ],
            [
              106.6745461,
              10.7900449
            ],
            [
              106.6745491,
              10.7901525
            ],
            [
              106.6745007,
              10.7901519
            ],
            [
              106.6744995,
              10.7900739
            ],
            [
              106.6744512,
              10.7900772
            ],
            [
              106.6744358,
              10.7900946
            ],
            [
              106.6744355,
              10.7901529
            ],
            [
              106.6743889,
              10.7901394
            ],
            [
              106.6743543,
              10.7901908
            ],
            [
              106.6743044,
              10.7902244
            ],
            [
              106.6742613,
              10.7901633
            ],
            [
              106.6741327,
              10.7902731
            ],
            [
              106.6740868,
              10.7902942
            ],
            [
              106.6740861,
              10.7903222
            ],
            [
              106.6740013,
              10.7903561
            ],
            [
              106.6738802,
              10.7901353
            ],
            [
              106.6739175,
              10.7901078
            ],
            [
              106.6737911,
              10.7899497
            ],
            [
              106.6737639,
              10.7899728
            ],
            [
              106.673635,
              10.7900182
            ],
            [
              106.6735158,
              10.7899873
            ],
            [
              106.6734268,
              10.7900011
            ],
            [
              106.6734149,
              10.78997
            ],
            [
              106.6733388,
              10.7899497
            ],
            [
              106.6733468,
              10.7899168
            ],
            [
              106.6733167,
              10.7899053
            ],
            [
              106.6733113,
              10.7899145
            ],
            [
              106.6732466,
              10.7898816
            ],
            [
              106.6730424,
              10.7898677
            ],
            [
              106.6729457,
              10.789875
            ],
            [
              106.6729421,
              10.7898931
            ],
            [
              106.6729242,
              10.78989
            ],
            [
              106.6729274,
              10.789872
            ],
            [
              106.6728399,
              10.7898572
            ],
            [
              106.6728389,
              10.7898308
            ],
            [
              106.6728198,
              10.7898233
            ],
            [
              106.6727155,
              10.7898061
            ],
            [
              106.6727091,
              10.7897864
            ],
            [
              106.6726163,
              10.7897953
            ],
            [
              106.6726099,
              10.7897689
            ],
            [
              106.672562,
              10.7897762
            ],
            [
              106.6725573,
              10.7897528
            ],
            [
              106.6724731,
              10.7897498
            ],
            [
              106.67229,
              10.7897811
            ],
            [
              106.6721772,
              10.7897854
            ],
            [
              106.6721962,
              10.7896523
            ],
            [
              106.672193,
              10.7895631
            ],
            [
              106.672156,
              10.7895385
            ],
            [
              106.6720091,
              10.7895242
            ],
            [
              106.6720191,
              10.789435
            ],
            [
              106.6719011,
              10.7893987
            ],
            [
              106.6719005,
              10.7893747
            ],
            [
              106.6718035,
              10.7893744
            ],
            [
              106.6718025,
              10.7893538
            ],
            [
              106.6716926,
              10.7893394
            ],
            [
              106.6716922,
              10.789323
            ],
            [
              106.6715477,
              10.7893286
            ],
            [
              106.6713509,
              10.7893124
            ],
            [
              106.6713496,
              10.7892841
            ],
            [
              106.6713328,
              10.7892844
            ],
            [
              106.6713335,
              10.7893147
            ],
            [
              106.6712939,
              10.7893174
            ],
            [
              106.6712735,
              10.7892673
            ],
            [
              106.6712326,
              10.7892739
            ],
            [
              106.6712299,
              10.7892617
            ],
            [
              106.6710336,
              10.7892987
            ],
            [
              106.6708138,
              10.7881402
            ],
            [
              106.6707794,
              10.7879103
            ],
            [
              106.6693492,
              10.7883824
            ],
            [
              106.669219,
              10.7884258
            ],
            [
              106.6689267,
              10.7885233
            ],
            [
              106.668815,
              10.7885635
            ],
            [
              106.6687456,
              10.7885884
            ],
            [
              106.66854,
              10.7886654
            ],
            [
              106.6683212,
              10.7887499
            ],
            [
              106.6681063,
              10.7888395
            ],
            [
              106.6680637,
              10.7888604
            ],
            [
              106.6678251,
              10.7889773
            ],
            [
              106.6671447,
              10.7893211
            ],
            [
              106.6670012,
              10.7893936
            ],
            [
              106.6669163,
              10.7894428
            ],
            [
              106.6668409,
              10.7894925
            ],
            [
              106.6667537,
              10.7895641
            ],
            [
              106.6667355,
              10.7895821
            ],
            [
              106.6667209,
              10.789603
            ],
            [
              106.6663865,
              10.7894643
            ],
            [
              106.6663763,
              10.7894333
            ],
            [
              106.6662963,
              10.7894613
            ],
            [
              106.6662407,
              10.7894466
            ],
            [
              106.6662225,
              10.7893724
            ],
            [
              106.6661193,
              10.7893948
            ],
            [
              106.6655862,
              10.7897991
            ],
            [
              106.6650608,
              10.7901541
            ],
            [
              106.664916,
              10.790134
            ],
            [
              106.6647497,
              10.7901109
            ],
            [
              106.6649394,
              10.7897198
            ],
            [
              106.6649958,
              10.7894924
            ],
            [
              106.6651983,
              10.7886751
            ],
            [
              106.6651435,
              10.7885827
            ],
            [
              106.6643976,
              10.7873242
            ],
            [
              106.6644258,
              10.787307
            ],
            [
              106.6642925,
              10.7871257
            ]
          ]
        ]
      }
    }
  ]
}
